ELECTRON R/B            
1 66317U 25252B   25323.90414267  .00637122  13555-3  13841-2 0  9999
2 66317  41.9948 192.2845 0192304 334.6336  24.5172 15.72532374  2202
ELECTRON KICK STAGE R/B 
1 66318U 25252C   25323.68195529  .00902842  76259-5  15495-2 0  9995
2 66318  41.9848 193.2188 0172903 124.1320 237.6068 15.79668006  2177
STARLINK-35442          
1 66319U 25253A   25323.91668981 -.00008183  00000+0 -50191-4 0  9996
2 66319  42.9989 119.1786 0001444 279.5121 267.1632 15.75050579  3353
STARLINK-34616          
1 66320U 25253B   25323.91668981  .00003435  00000+0  25465-4 0  9997
2 66320  42.9986 119.1728 0002065 275.5334 273.0713 15.75037711  3461
STARLINK-34615          
1 66321U 25253C   25323.91668981  .00005150  00000+0  36593-4 0  9998
2 66321  42.9988 119.1687 0001754 273.7572 276.7544 15.75052304  3306
STARLINK-35292          
1 66322U 25253D   25323.91668981 -.00186269  00000+0 -12283-2 0  9990
2 66322  42.9988 119.1494 0001446 277.0446 281.1174 15.75188414  3253
STARLINK-35309          
1 66323U 25253E   25323.91668981 -.00012641  00000+0 -79238-4 0  9998
2 66323  42.9988 119.1357 0001704 282.8458 281.0770 15.75057110  3266
STARLINK-35506          
1 66324U 25253F   25323.91668981 -.00148676  00000+0 -97752-3 0  9997
2 66324  42.9989 119.1543 0002307 278.1560 278.0849 15.75136995  3359
STARLINK-35504          
1 66325U 25253G   25323.91668981 -.00009086  00000+0 -56066-4 0  9993
2 66325  42.9991 119.1453 0001892 276.4332 283.6589 15.75051270  3253
STARLINK-35479          
1 66326U 25253H   25323.91668981  .00023315  00000+0  15444-3 0  9997
2 66326  42.9987 119.1302 0001672 281.7494 284.0936 15.75042689  3352
STARLINK-35507          
1 66327U 25253J   25323.91668981 -.00025360  00000+0 -16223-3 0  9998
2 66327  42.9987 119.1592 0002329 280.6463 273.6765 15.75070889  3355
STARLINK-35460          
1 66328U 25253K   25323.91668981  .00013033  00000+0  87794-4 0  9993
2 66328  42.9986 119.1145 0001755 273.7441 297.8485 15.75044843  3358
