CCSDS_OMM_VERS = 2.0
CREATION_DATE  = 
ORIGINATOR     = 

OBJECT_NAME    = ELECTRON R/B
OBJECT_ID      = 2025-252B
CENTER_NAME    = EARTH
REF_FRAME      = TEME
TIME_SYSTEM    = UTC
MEAN_ELEMENT_THEORY = SGP/SGP4

EPOCH          = 2025-11-19T21:41:57.926688
MEAN_MOTION    = 15.72532374
ECCENTRICITY   = .01923044
INCLINATION    = 41.9948
RA_OF_ASC_NODE = 192.2845
ARG_OF_PERICENTER = 334.6336
MEAN_ANOMALY   = 24.5172

EPHEMERIS_TYPE = 0
CLASSIFICATION_TYPE = U
NORAD_CAT_ID   = 66317
ELEMENT_SET_NO = 999
REV_AT_EPOCH   = 220
BSTAR          = .13841333E-2
MEAN_MOTION_DOT = .637122E-2
MEAN_MOTION_DDOT = .13554952E-3

CCSDS_OMM_VERS = 2.0
CREATION_DATE  = 
ORIGINATOR     = 

OBJECT_NAME    = ELECTRON KICK STAGE R/B
OBJECT_ID      = 2025-252C
CENTER_NAME    = EARTH
REF_FRAME      = TEME
TIME_SYSTEM    = UTC
MEAN_ELEMENT_THEORY = SGP/SGP4

EPOCH          = 2025-11-19T16:22:00.937056
MEAN_MOTION    = 15.79668006
ECCENTRICITY   = .01729038
INCLINATION    = 41.9848
RA_OF_ASC_NODE = 193.2188
ARG_OF_PERICENTER = 124.1320
MEAN_ANOMALY   = 237.6068

EPHEMERIS_TYPE = 0
CLASSIFICATION_TYPE = U
NORAD_CAT_ID   = 66318
ELEMENT_SET_NO = 999
REV_AT_EPOCH   = 217
BSTAR          = .15495022E-2
MEAN_MOTION_DOT = .902842E-2
MEAN_MOTION_DDOT = .762594E-5

CCSDS_OMM_VERS = 2.0
CREATION_DATE  = 
ORIGINATOR     = 

OBJECT_NAME    = STARLINK-35442
OBJECT_ID      = 2025-253A
CENTER_NAME    = EARTH
REF_FRAME      = TEME
TIME_SYSTEM    = UTC
MEAN_ELEMENT_THEORY = SGP/SGP4

EPOCH          = 2025-11-19T22:00:01.999584
MEAN_MOTION    = 15.75050579
ECCENTRICITY   = .00014441
INCLINATION    = 42.9989
RA_OF_ASC_NODE = 119.1786
ARG_OF_PERICENTER = 279.5121
MEAN_ANOMALY   = 267.1632

EPHEMERIS_TYPE = 0
CLASSIFICATION_TYPE = U
NORAD_CAT_ID   = 66319
ELEMENT_SET_NO = 999
REV_AT_EPOCH   = 335
BSTAR          = -.50191393E-4
MEAN_MOTION_DOT = -.8183E-4
MEAN_MOTION_DDOT = 0

CCSDS_OMM_VERS = 2.0
CREATION_DATE  = 
ORIGINATOR     = 

OBJECT_NAME    = STARLINK-34616
OBJECT_ID      = 2025-253B
CENTER_NAME    = EARTH
REF_FRAME      = TEME
TIME_SYSTEM    = UTC
MEAN_ELEMENT_THEORY = SGP/SGP4

EPOCH          = 2025-11-19T22:00:01.999584
MEAN_MOTION    = 15.75037711
ECCENTRICITY   = .00020654
INCLINATION    = 42.9986
RA_OF_ASC_NODE = 119.1728
ARG_OF_PERICENTER = 275.5334
MEAN_ANOMALY   = 273.0713

EPHEMERIS_TYPE = 0
CLASSIFICATION_TYPE = U
NORAD_CAT_ID   = 66320
ELEMENT_SET_NO = 999
REV_AT_EPOCH   = 346
BSTAR          = .25465042E-4
MEAN_MOTION_DOT = .3435E-4
MEAN_MOTION_DDOT = 0

CCSDS_OMM_VERS = 2.0
CREATION_DATE  = 
ORIGINATOR     = 

OBJECT_NAME    = STARLINK-34615
OBJECT_ID      = 2025-253C
CENTER_NAME    = EARTH
REF_FRAME      = TEME
TIME_SYSTEM    = UTC
MEAN_ELEMENT_THEORY = SGP/SGP4

EPOCH          = 2025-11-19T22:00:01.999584
MEAN_MOTION    = 15.75052304
ECCENTRICITY   = .00017549
INCLINATION    = 42.9988
RA_OF_ASC_NODE = 119.1687
ARG_OF_PERICENTER = 273.7572
MEAN_ANOMALY   = 276.7544

EPHEMERIS_TYPE = 0
CLASSIFICATION_TYPE = U
NORAD_CAT_ID   = 66321
ELEMENT_SET_NO = 999
REV_AT_EPOCH   = 330
BSTAR          = .36593289E-4
MEAN_MOTION_DOT = .515E-4
MEAN_MOTION_DDOT = 0

CCSDS_OMM_VERS = 2.0
CREATION_DATE  = 
ORIGINATOR     = 

OBJECT_NAME    = STARLINK-35292
OBJECT_ID      = 2025-253D
CENTER_NAME    = EARTH
REF_FRAME      = TEME
TIME_SYSTEM    = UTC
MEAN_ELEMENT_THEORY = SGP/SGP4

EPOCH          = 2025-11-19T22:00:01.999584
MEAN_MOTION    = 15.75188414
ECCENTRICITY   = .00014463
INCLINATION    = 42.9988
RA_OF_ASC_NODE = 119.1494
ARG_OF_PERICENTER = 277.0446
MEAN_ANOMALY   = 281.1174

EPHEMERIS_TYPE = 0
CLASSIFICATION_TYPE = U
NORAD_CAT_ID   = 66322
ELEMENT_SET_NO = 999
REV_AT_EPOCH   = 325
BSTAR          = -.1228338E-2
MEAN_MOTION_DOT = -.186269E-2
MEAN_MOTION_DDOT = 0

CCSDS_OMM_VERS = 2.0
CREATION_DATE  = 
ORIGINATOR     = 

OBJECT_NAME    = STARLINK-35309
OBJECT_ID      = 2025-253E
CENTER_NAME    = EARTH
REF_FRAME      = TEME
TIME_SYSTEM    = UTC
MEAN_ELEMENT_THEORY = SGP/SGP4

EPOCH          = 2025-11-19T22:00:01.999584
MEAN_MOTION    = 15.75057110
ECCENTRICITY   = .00017048
INCLINATION    = 42.9988
RA_OF_ASC_NODE = 119.1357
ARG_OF_PERICENTER = 282.8458
MEAN_ANOMALY   = 281.0770

EPHEMERIS_TYPE = 0
CLASSIFICATION_TYPE = U
NORAD_CAT_ID   = 66323
ELEMENT_SET_NO = 999
REV_AT_EPOCH   = 326
BSTAR          = -.79238349E-4
MEAN_MOTION_DOT = -.12641E-3
MEAN_MOTION_DDOT = 0

CCSDS_OMM_VERS = 2.0
CREATION_DATE  = 
ORIGINATOR     = 

OBJECT_NAME    = STARLINK-35506
OBJECT_ID      = 2025-253F
CENTER_NAME    = EARTH
REF_FRAME      = TEME
TIME_SYSTEM    = UTC
MEAN_ELEMENT_THEORY = SGP/SGP4

EPOCH          = 2025-11-19T22:00:01.999584
MEAN_MOTION    = 15.75136995
ECCENTRICITY   = .00023073
INCLINATION    = 42.9989
RA_OF_ASC_NODE = 119.1543
ARG_OF_PERICENTER = 278.1560
MEAN_ANOMALY   = 278.0849

EPHEMERIS_TYPE = 0
CLASSIFICATION_TYPE = U
NORAD_CAT_ID   = 66324
ELEMENT_SET_NO = 999
REV_AT_EPOCH   = 335
BSTAR          = -.97752466E-3
MEAN_MOTION_DOT = -.148676E-2
MEAN_MOTION_DDOT = 0

CCSDS_OMM_VERS = 2.0
CREATION_DATE  = 
ORIGINATOR     = 

OBJECT_NAME    = STARLINK-35504
OBJECT_ID      = 2025-253G
CENTER_NAME    = EARTH
REF_FRAME      = TEME
TIME_SYSTEM    = UTC
MEAN_ELEMENT_THEORY = SGP/SGP4

EPOCH          = 2025-11-19T22:00:01.999584
MEAN_MOTION    = 15.75051270
ECCENTRICITY   = .00018925
INCLINATION    = 42.9991
RA_OF_ASC_NODE = 119.1453
ARG_OF_PERICENTER = 276.4332
MEAN_ANOMALY   = 283.6589

EPHEMERIS_TYPE = 0
CLASSIFICATION_TYPE = U
NORAD_CAT_ID   = 66325
ELEMENT_SET_NO = 999
REV_AT_EPOCH   = 325
BSTAR          = -.56066412E-4
MEAN_MOTION_DOT = -.9086E-4
MEAN_MOTION_DDOT = 0

CCSDS_OMM_VERS = 2.0
CREATION_DATE  = 
ORIGINATOR     = 

OBJECT_NAME    = STARLINK-35479
OBJECT_ID      = 2025-253H
CENTER_NAME    = EARTH
REF_FRAME      = TEME
TIME_SYSTEM    = UTC
MEAN_ELEMENT_THEORY = SGP/SGP4

EPOCH          = 2025-11-19T22:00:01.999584
MEAN_MOTION    = 15.75042689
ECCENTRICITY   = .00016728
INCLINATION    = 42.9987
RA_OF_ASC_NODE = 119.1302
ARG_OF_PERICENTER = 281.7494
MEAN_ANOMALY   = 284.0936

EPHEMERIS_TYPE = 0
CLASSIFICATION_TYPE = U
NORAD_CAT_ID   = 66326
ELEMENT_SET_NO = 999
REV_AT_EPOCH   = 335
BSTAR          = .15443926E-3
MEAN_MOTION_DOT = .23315E-3
MEAN_MOTION_DDOT = 0

CCSDS_OMM_VERS = 2.0
CREATION_DATE  = 
ORIGINATOR     = 

OBJECT_NAME    = STARLINK-35507
OBJECT_ID      = 2025-253J
CENTER_NAME    = EARTH
REF_FRAME      = TEME
TIME_SYSTEM    = UTC
MEAN_ELEMENT_THEORY = SGP/SGP4

EPOCH          = 2025-11-19T22:00:01.999584
MEAN_MOTION    = 15.75070889
ECCENTRICITY   = .00023294
INCLINATION    = 42.9987
RA_OF_ASC_NODE = 119.1592
ARG_OF_PERICENTER = 280.6463
MEAN_ANOMALY   = 273.6765

EPHEMERIS_TYPE = 0
CLASSIFICATION_TYPE = U
NORAD_CAT_ID   = 66327
ELEMENT_SET_NO = 999
REV_AT_EPOCH   = 335
BSTAR          = -.16222583E-3
MEAN_MOTION_DOT = -.2536E-3
MEAN_MOTION_DDOT = 0

CCSDS_OMM_VERS = 2.0
CREATION_DATE  = 
ORIGINATOR     = 

OBJECT_NAME    = STARLINK-35460
OBJECT_ID      = 2025-253K
CENTER_NAME    = EARTH
REF_FRAME      = TEME
TIME_SYSTEM    = UTC
MEAN_ELEMENT_THEORY = SGP/SGP4

EPOCH          = 2025-11-19T22:00:01.999584
MEAN_MOTION    = 15.75044843
ECCENTRICITY   = .00017556
INCLINATION    = 42.9986
RA_OF_ASC_NODE = 119.1145
ARG_OF_PERICENTER = 273.7441
MEAN_ANOMALY   = 297.8485

EPHEMERIS_TYPE = 0
CLASSIFICATION_TYPE = U
NORAD_CAT_ID   = 66328
ELEMENT_SET_NO = 999
REV_AT_EPOCH   = 335
BSTAR          = .87794391E-4
MEAN_MOTION_DOT = .13033E-3
MEAN_MOTION_DDOT = 0

